EUTELSAT 8 WEST B       
1 40875U 15039B   25359.25741242 -.00000044  00000+0  00000+0 0  9990
2 40875   0.0645   9.1951 0004220 265.5835 263.9078  1.00271322 37911
EUTELSAT 9B             
1 41310U 16005A   25359.68879936  .00000083  00000+0  00000+0 0  9990
2 41310   0.0258  45.4208 0004671 229.6362  76.3538  1.00269837 36374
EUTELSAT 65 WEST A      
1 41382U 16014A   25359.88817162 -.00000255  00000+0  00000+0 0  9996
2 41382   0.0480 346.0355 0002336 291.9689  71.1992  1.00271466 35796
EUTELSAT 117 WEST B     
1 41589U 16038B   25358.41598396  .00000009  00000+0  00000+0 0  9990
2 41589   0.0094 154.0765 0000638 139.5473 192.3072  1.00277873 34915
EUTELSAT 172B           
1 42741U 17029B   25359.86378051  .00000017  00000+0  00000+0 0  9995
2 42741   0.0359 152.4382 0000319 137.6622 287.4820  1.00277797 31995
EUTELSAT 7C             
1 44334U 19034B   25358.61850169  .00000069  00000+0  00000+0 0  9997
2 44334   0.0726 177.7928 0003159  79.9691  65.2631  1.00270796  5083
EUTELSAT 5 WEST B       
1 44624U 19067A   25359.75743981 -.00000021  00000+0  00000+0 0  9993
2 44624   0.0627 345.6151 0003183 287.7229  88.8540  1.00271274 22690
EUTELSAT KONNECT        
1 45027U 20005B   25358.97522397  .00000070  00000+0  00000+0 0  9997
2 45027   0.0690  93.7711 0001571 204.5991 153.6522  1.00267204 22591
